0 SL-14 R/B
1 15945U 85069B   19253.76449468 +.00000080 +00000-0 +66738-5 0  9993
2 15945 082.5249 089.1844 0021202 109.0464 251.3050 14.84013117841987
0 RADUGA 16
1 15946U 85070A   19253.36519219 -.00000159 +00000-0 +00000-0 0  9997
2 15946 013.4795 337.3179 0002071 325.1294 077.2459 01.00380868097447
0 SCOUT G-1 DEB
1 15950U 85066D   19253.47745434 +.00000153 +00000-0 +10879-3 0  9990
2 15950 089.9102 327.8353 0114284 053.1221 005.8008 13.90200790697516
0 SCOUT G-1 DEB
1 15950U 85066D   19253.90802840  .00000204  00000-0  14769-3 0  9992
2 15950  89.9102 327.8311 0114158  51.7817   0.7128 13.90201234697796
0 SCOUT G-1 DEB
1 15951U 85066E   19254.35421103  .00000676  00000-0  57728-3 0  9997
2 15951  89.8291 215.3718 0153672 355.8164 156.7481 13.80948573692000
0 SCOUT G-1 DEB
1 15951U 85066E   19253.34018565 +.00000697 +00000-0 +59541-3 0  9997
2 15951 089.8292 215.3901 0153823 358.8321 155.6857 13.80947213691656
0 COSMOS 1675
1 15952U 85071A   19253.43578708 +.00009248 +00000-0 +61010-3 0  9999
2 15952 064.4453 249.8162 6711625 350.8156 001.3266 03.06193620312169
0 COSMOS 1675
1 15952U 85071A   19253.43578708  .00009248  00000-0  61010-3 0  9999
2 15952  64.4453 249.8162 6711625 350.8156   1.3266  3.06193620312158
0 SL-12 R/B(2)
1 15963U 85070F   19253.76794469 -.00000172 +00000-0 +00000-0 0  9997
2 15963 014.6131 340.7277 0009565 104.8411 187.0099 00.97805239095524
0 COSMOS 1677
1 15986U 85075A   19253.75339441 -.00000082 +00000-0 +79791-5 0  9999
2 15986 064.6828 330.6479 0080127 302.6725 056.6622 13.86551881715297
0 COSMOS 1677
1 15986U 85075A   19254.76314721 -.00000081  00000-0  85944-5 0  9991
2 15986  64.6827 327.9905 0080182 302.4644  56.8680 13.86551891715431
0 OPTUS A1 (AUSSAT 1)
1 15993U 85076B   19253.03174296 -.00000150 +00000-0 +00000-0 0  9992
2 15993 015.1619 358.9958 0005781 332.0328 025.8362 00.99768663094925
0 OPTUS A1 (AUSSAT 1)
1 15993U 85076B   19254.04007777 -.00000161  00000-0  00000+0 0  9994
2 15993  15.1615 358.9861 0005787 332.0613  27.9805  0.99768736 94934
0 LEASAT 4
1 15995U 85076D   19253.21659948 -.00000101 +00000-0 +00000-0 0  9992
2 15995 013.1749 345.7568 0008270 310.7173 061.2052 00.97798758093966
0 OPTUS A1 R/B(PAM-D)
1 15996U 85076E   19253.48923793 +.00000030 +00000-0 +21869-3 0  9993
2 15996 026.2928 053.4463 7163549 181.4947 173.9182 02.36252005236260
0 LEASAT 4 PKM
1 16001U 85076F   19253.39603881 +.00000045 +00000-0 +67154-4 0  9998
2 16001 027.4288 019.2179 5053086 004.7254 358.6138 05.44329896656808
0 LEASAT 4 PKM
1 16001U 85076F   19254.49801688 -.00000001  00000-0  56920-4 0  9997
2 16001  27.4281  17.9891 5053173   6.7593 358.0330  5.44330064656843
0 ASC 1 R/B(PAM-D)
1 16007U 85076G   19254.80757910 -.00000079  00000-0  23907-3 0  9999
2 16007  26.8082  82.7759 7150558  61.3269 351.7544  2.35634414288052
0 ASC 1 R/B(PAM-D)
1 16007U 85076G   19253.11022222 -.00000126 +00000-0 +23073-3 0  9990
2 16007 026.8073 083.4081 7150583 060.2712 351.9280 02.35634150288020
0 COSMOS 1680
1 16011U 85079A   19254.85026822 -.00000003  00000-0  85125-5 0  9992
2 16011  74.0546 156.8404 0015944 224.8665 135.1198 14.33215562778092
0 COSMOS 1680
1 16011U 85079A   19253.80324904 -.00000009 +00000-0 +60371-5 0  9990
2 16011 074.0547 158.7515 0015975 226.9694 133.0120 14.33215532777702
0 SL-8 R/B
1 16012U 85079B   19253.81644065 +.00000136 +00000-0 +55419-4 0  9991
2 16012 074.0578 079.0453 0014346 142.1548 218.0617 14.36329502780694
0 SL-8 R/B
1 16012U 85079B   19254.86119098  .00000135  00000-0  55095-4 0  9999
2 16012  74.0578  77.1288 0014306 139.8558 220.3655 14.36329847781049
0 SCOUT G-1 DEB
1 16020U 85066F   19254.15027437  .00000042  00000-0  55359-4 0  9991
2 16020  90.2677 315.1208 0142791 130.7969 259.3965 13.40362119665030
0 SCOUT G-1 DEB
1 16020U 85066F   19253.18508469 +.00000036 +00000-0 +44804-4 0  9998
2 16020 090.2678 315.0952 0142733 133.5094 282.0951 13.40362021664716
0 COSMOS 1684
1 16064U 85084A   19253.31837415 +.00000244 +00000-0 +00000-0 0  9994
2 16064 067.1015 208.3550 5799769 147.3661 267.8331 02.00342567248746
0 COSMOS 1684
1 16064U 85084A   19254.31670368  .00000246  00000-0  00000+0 0  9998
2 16064  67.1016 208.2953 5799231 147.3496 267.8602  2.00343271248837
0 SL-6 R/B(2)
1 16070U 85084D   19252.96201758 +.00000035 +00000-0 +00000-0 0  9994
2 16070 070.4362 190.9965 4973720 062.0389 102.4734 02.03979086253002
0 SL-6 R/B(2)
1 16070U 85084D   19253.94025833  .00000032  00000-0  00000+0 0  9997
2 16070  70.4361 190.9562 4974189  62.0068 100.8229  2.03978812253027
0 INTELSAT 512
1 16101U 85087A   19253.88770671  .00000050  00000-0  00000+0 0  9995
2 16101  15.4209   3.6727 0008206 256.5280 104.9427  0.99110850105827
0 COSMOS 1687
1 16103U 85088A   19253.07658584 -.00000391 +00000-0 +00000-0 0  9997
2 16103 069.6905 139.5074 5671353 049.2442 070.2719 02.00595678248655
0 SL-3 R/B
1 16111U 85090B   19253.80110588 +.00005308 +00000-0 +64469-4 0  9992
2 16111 097.4537 046.1472 0011174 234.0037 126.0185 15.61003785871201
0 SL-3 R/B
1 16111U 85090B   19254.82676243  .00004647  00000-0  56591-4 0  9992
2 16111  97.4539  47.2251 0011252 229.8107 130.2165 15.61014368871368
0 USA 11
1 16116U 85092B   19254.28978503 -.00000103  00000-0  00000+0 0  9996
2 16116  15.2517   7.3451 0002022  27.1573 332.8854  0.99323358  1364
0 USA 11
1 16116U 85092B   19253.28300308 -.00000123 +00000-0 +00000-0 0  9990
2 16116 015.2518 007.3546 0002032 026.8304 333.2092 00.99323557001358
0 IUS R/B(1)
1 16118U 85092D   19254.36122867 -.00000004  00000-0  19393-3 0  9990
2 16118  25.7408 324.3981 7174048 121.6326 327.1304  2.28681099  4231
0 IUS R/B(2)
1 16119U 85092E   19253.27160614 -.00000201 +00000-0 +00000-0 0  9993
2 16119 014.1492 337.5720 0056673 114.8286 245.8007 01.01090031001063
0 NAVSTAR 11 (USA 10)
1 16129U 85093A   19253.65360903 -.00000033 +00000-0 +00000-0 0  9993
2 16129 062.7298 153.0000 0259695 045.0566 163.9358 01.89368979182495
0 NAVSTAR 11 (USA 10)
1 16129U 85093A   19253.65360903 -.00000033  00000-0  00000+0 0  9992
2 16129  62.7298 153.0000 0259695  45.0566 163.9358  1.89368979182608
0 ATLAS 55E R/B
1 16137U 85093B   19253.74208668 +.00000042 +00000-0 +60229-3 0  9992
2 16137 063.7156 093.6894 5682192 354.9250 001.2252 03.91010155484438
0 COSMOS 1690
1 16138U 85094A   19253.79690939 +.00000009 +00000-0 -11172-4 0  9993
2 16138 082.6121 002.7491 0021884 174.6274 304.0005 12.66026297567380
0 COSMOS 1690
1 16138U 85094A   19254.82449905  .00000005  00000-0 -29592-4 0  9994
2 16138  82.6122   2.0918 0021924 172.3255 307.3963 12.66026292567763
0 COSMOS 1691
1 16139U 85094B   19253.86185490 +.00000025 +00000-0 +82513-4 0  9997
2 16139 082.6096 060.0892 0001515 070.4308 046.2982 12.62400899563402
0 COSMOS 1691
1 16139U 85094B   19254.89079661  .00000027  00000-0  89428-4 0  9997
2 16139  82.6098  59.4353 0001493  69.6381  40.9311 12.62400969563577
0 COSMOS 1692
1 16140U 85094C   19254.80837492  .00000006  00000-0 -24621-4 0  9996
2 16140  82.6049   9.5570 0016802 231.8131 241.2673 12.64908377566419
0 COSMOS 1692
1 16140U 85094C   19253.78107853 -.00000002 +00000-0 -67371-4 0  9999
2 16140 082.6053 010.2132 0016756 234.2166 243.2358 12.64908432566032
0 COSMOS 1693
1 16141U 85094D   19253.79952855 +.00000002 +00000-0 -46301-4 0  9990
2 16141 082.6128 028.5420 0013778 259.4780 215.5656 12.64348882565332
0 COSMOS 1694
1 16142U 85094E   19253.81615273 +.00000007 +00000-0 -21642-4 0  9990
2 16142 082.6097 036.6922 0010473 287.4625 189.7920 12.63677173564515
0 COSMOS 1694
1 16142U 85094E   19254.76754669  .00000003  00000-0 -44161-4 0  9995
2 16142  82.6103  36.0858 0010435 285.1172 198.0925 12.63677232564889
0 COSMOS 1695
1 16143U 85094F   19253.80658649 +.00000004 +00000-0 -36203-4 0  9990
2 16143 082.6029 041.7668 0006765 338.0072 140.1381 12.62888879563543
0 SL-14 R/B
1 16144U 85094G   19253.85467990 -.00000003 +00000-0 -78601-4 0  9991
2 16144 082.6116 162.6298 0035535 221.5645 199.9553 12.54869160553985
0 COSMOS 1697
1 16181U 85097A   19253.83491120 +.00000077 +00000-0 +66085-4 0  9997
2 16181 070.9649 158.7179 0015948 152.5013 207.6955 14.13409951614727
0 SL-16 R/B
1 16182U 85097B   19253.84497490 -.00000202 +00000-0 -77834-4 0  9991
2 16182 071.0002 091.9113 0009799 270.6846 178.0682 14.16243322751701
0 METEOR 3-1
1 16191U 85100A   19253.80154464 -.00000032 +00000-0 -11617-3 0  9990
2 16191 082.5514 344.6533 0020807 059.2266 058.3885 13.17219536629170
0 SL-14 R/B
1 16194U 85100B   19253.79465913 -.00000862 +00000-0 -26326-2 0  9998
2 16194 082.6255 166.2650 0017757 106.7558 306.5521 13.06915717615381
0 SL-14 R/B
1 16194U 85100B   19254.86894017 -.00000849  00000-0 -25932-2 0  9995
2 16194  82.6251 165.5265 0017765 104.3216 320.7214 13.06913876615780
0 COSMOS 1700
1 16199U 85102A   19254.74771564  .00000004  00000-0  00000+0 0  9997
2 16199  13.6099 339.0124 0003429 160.1488 181.6743  1.00304073126898
0 COSMOS 1700
1 16199U 85102A   19253.12482523 +.00000003 +00000-0 +00000-0 0  9992
2 16199 013.6118 339.0288 0003443 159.8386 315.9446 01.00303645126884
0 COSMOS 1375 DEB
1 16202U 82055D   19253.84123913 +.00000028 +00000-0 +79163-4 0  9992
2 16202 065.8294 164.8573 0083771 177.7310 255.1527 13.96582205892527
0 COSMOS 1375 DEB
1 16202U 82055D   19254.84136927  .00000020  00000-0  73721-4 0  9998
2 16202  65.8293 162.2945 0083675 177.2052 243.5181 13.96582395892923
0 COSMOS 1375 DEB
1 16203U 82055E   19254.76694128 -.00000086  00000-0 -18499-5 0  9998
2 16203  65.8368  24.3657 0064662 167.4968 297.9947 13.88946874887864
0 COSMOS 1375 DEB
1 16203U 82055E   19253.75992366 -.00000087 +00000-0 -28076-5 0  9994
2 16203 065.8367 026.9127 0064751 168.0169 302.6853 13.88946867887460
